IRIDIUM 33 DEB          
1 36486U 97051WC  17345.77067832  .00002355  00000-0  47353-3 0  9999
2 36486  86.3557 171.9299 0014999 235.3930 124.5867 14.61174495459371
